ONEWEB-0572             
1 55151U 23004M   26160.62196937 -.00000037  00000+0 -12954-3 0  9999
2 55151  87.9137   7.3709 0001849  93.2462 266.8881 13.17647650166482
ONEWEB-0573             
1 55152U 23004N   26160.75495044  .00000070  00000+0  14367-3 0  9990
2 55152  87.9158 336.9491 0001938 118.6317 241.5011 13.18685630168719
ONEWEB-0588             
1 55153U 23004P   26160.74820096  .00000080  00000+0  16972-3 0  9994
2 55153  87.9157 336.9507 0002281  99.2215 260.9175 13.18684847168715
ONEWEB-0598             
1 55154U 23004Q   26160.60688360  .00000593  00000+0  16362-2 0  9997
2 55154  87.8893  22.5778 0001402 107.1793 252.9489 13.11417744164903
ONEWEB-0599             
1 55155U 23004R   26160.81096927  .00000056  00000+0  10989-3 0  9997
2 55155  87.9137   7.3321 0001643  84.3362 275.7957 13.17648592166511
ONEWEB-0614             
1 55156U 23004S   26160.67808803  .00000563  00000+0  15525-2 0  9999
2 55156  87.8890  22.5724 0002041  82.5951 277.5408 13.11419492164855
ONEWEB-0616             
1 55157U 23004T   26160.54941661  .00000075  00000+0  16002-3 0  9996
2 55157  87.9138   7.3874 0001186  61.0177 299.1074 13.17648409166691
ONEWEB-0617             
1 55158U 23004U   26160.36103802  .00000208  00000+0  55239-3 0  9997
2 55158  87.8898  22.6263 0002238  87.5647 272.5738 13.11419124164830
ONEWEB-0618             
1 55159U 23004V   26160.78393930  .00003720  00000+0  20821-3 0  9998
2 55159  86.9105 180.6401 0010523 333.2643  26.8053 15.13089901181147
ONEWEB-0619             
1 55160U 23004W   26160.80928889 -.00000001  00000+0 -34582-4 0  9991
2 55160  87.9148   7.3158 0002067  75.3058 284.8303 13.17649085166626
ONEWEB-0620             
1 55161U 23004X   26160.66112253 -.00000055  00000+0 -19103-3 0  9996
2 55161  87.8894  22.5757 0001807  92.7813 267.3522 13.11420421164847
ONEWEB-0621             
1 55162U 23004Y   26160.68826393  .00000401  00000+0  10949-2 0  9997
2 55162  87.8901  22.5581 0002021  82.0580 278.0778 13.11416156164824
ONEWEB-0622             
1 55163U 23004Z   26160.61705538  .00000326  00000+0  88325-3 0  9998
2 55163  87.8903  22.5746 0002480  93.6366 266.5046 13.11415605164805
ONEWEB-0623             
1 55164U 23004AA  26160.80422093  .00000079  00000+0  16965-3 0  9998
2 55164  87.9135   7.3479 0002610  81.9676 278.1752 13.17649677166615
ONEWEB-0624             
1 55165U 23004AB  26160.80261761 -.00000118  00000+0 -36084-3 0  9992
2 55165  87.8945 352.0556 0001902  87.4341 272.7005 13.12929062167103
ONEWEB-0625             
1 55166U 23004AC  26160.56629354  .00000076  00000+0  16248-3 0  9993
2 55166  87.9139   7.3906 0001733  82.7513 277.3815 13.17648786166576
ONEWEB-0626             
1 55167U 23004AD  26160.55617317  .00000064  00000+0  13045-3 0  9998
2 55167  87.9137   7.3923 0001697  99.8238 260.3086 13.17648764166574
ONEWEB-0627             
1 55168U 23004AE  26160.62027997 -.00000009  00000+0 -55840-4 0  9997
2 55168  87.9136   7.3801 0002348  83.7030 276.4369 13.17647261166589
ONEWEB-0628             
1 55169U 23004AF  26160.78131010 -.00000310  00000+0 -89630-3 0  9995
2 55169  87.8948 352.1260 0002458  81.8316 278.3091 13.12443561167067
ONEWEB-0629             
1 55170U 23004AG  26160.59580734  .00000024  00000+0  28272-4 0  9993
2 55170  87.9137   7.3810 0001984  78.0815 282.0539 13.17651649166583
ONEWEB-0631             
1 55171U 23004AH  26160.74145559  .00000068  00000+0  13986-3 0  9996
2 55171  87.9168 336.9174 0002113 104.0551 256.0816 13.18684954168693
ONEWEB-0709             
1 55172U 23004AJ  26160.65094761 -.00000380  00000+0 -11071-2 0  9996
2 55172  87.8890  22.5799 0001453 113.1045 247.0236 13.11417012164886
ONEWEB-0710             
1 55173U 23004AK  26160.61016339  .00000030  00000+0  43511-4 0  9994
2 55173  87.9136   7.3735 0002020  87.8820 272.2543 13.17649205166588
ONEWEB-0711             
1 55174U 23004AL  26160.62214873  .00000142  00000+0  36384-3 0  9992
2 55174  87.8893  22.5724 0002553  86.1988 273.9432 13.11416320164849
ONEWEB-0713             
1 55175U 23004AM  26160.64078089 -.00000570  00000+0 -16455-2 0  9995
2 55175  87.8896  22.5701 0002198  85.6378 274.5001 13.11415613164832
ONEWEB-0715             
1 55176U 23004AN  26160.55939926 -.00000404  00000+0 -11771-2 0  9994
2 55176  87.8893  22.5872 0001803 106.6934 253.4392 13.11416040164860
ONEWEB-0716             
1 55177U 23004AP  26160.60341327  .00000110  00000+0  24935-3 0  9992
2 55177  87.9140   7.3778 0001696  82.1395 277.9929 13.17649282166582
ONEWEB-0717             
1 55178U 23004AQ  26160.81434451  .00000114  00000+0  26127-3 0  9996
2 55178  87.9148   7.3223 0002389  92.6272 267.5134 13.17648135166664
ONEWEB-0719             
1 55179U 23004AR  26160.59666799  .00000071  00000+0  14953-3 0  9990
2 55179  87.9146   7.3461 0001825  80.9180 279.2158 13.17648580166580
ONEWEB-0530             
1 55796U 23029A   26160.28698440  .00000029  00000+0  40177-4 0  9997
2 55796  87.9180 276.0442 0002366  95.0966 265.0438 13.20771077160105
