OBJECT_NAME,OBJECT_ID,EPOCH,MEAN_MOTION,ECCENTRICITY,INCLINATION,RA_OF_ASC_NODE,ARG_OF_PERICENTER,MEAN_ANOMALY,EPHEMERIS_TYPE,CLASSIFICATION_TYPE,NORAD_CAT_ID,ELEMENT_SET_NO,REV_AT_EPOCH,BSTAR,MEAN_MOTION_DOT,MEAN_MOTION_DDOT
ONEWEB-0572,2023-004M,2026-06-09T14:55:38.153568,13.17647650,.00018497,87.9137,7.3709,93.2462,266.8881,0,U,55151,999,16648,-.12954224E-3,-.37E-6,0
ONEWEB-0573,2023-004N,2026-06-09T18:07:07.718016,13.18685630,.00019386,87.9158,336.9491,118.6317,241.5011,0,U,55152,999,16871,.14366624E-3,.7E-6,0
ONEWEB-0588,2023-004P,2026-06-09T17:57:24.562944,13.18684847,.00022818,87.9157,336.9507,99.2215,260.9175,0,U,55153,999,16871,.16971764E-3,.8E-6,0
ONEWEB-0598,2023-004Q,2026-06-09T14:33:54.743040,13.11417744,.00014027,87.8893,22.5778,107.1793,252.9489,0,U,55154,999,16490,.16361825E-2,.593E-5,0
ONEWEB-0599,2023-004R,2026-06-09T19:27:47.744928,13.17648592,.00016438,87.9137,7.3321,84.3362,275.7957,0,U,55155,999,16651,.10988674E-3,.56E-6,0
ONEWEB-0614,2023-004S,2026-06-09T16:16:26.805792,13.11419492,.00020412,87.8890,22.5724,82.5951,277.5408,0,U,55156,999,16485,.15524775E-2,.563E-5,0
ONEWEB-0616,2023-004T,2026-06-09T13:11:09.595104,13.17648409,.00011864,87.9138,7.3874,61.0177,299.1074,0,U,55157,999,16669,.16002201E-3,.75E-6,0
ONEWEB-0617,2023-004U,2026-06-09T08:39:53.684928,13.11419124,.00022384,87.8898,22.6263,87.5647,272.5738,0,U,55158,999,16483,.55239444E-3,.208E-5,0
ONEWEB-0618,2023-004V,2026-06-09T18:48:52.355520,15.13089901,.00105234,86.9105,180.6401,333.2643,26.8053,0,U,55159,999,18114,.2082111E-3,.372E-4,0
ONEWEB-0619,2023-004W,2026-06-09T19:25:22.560096,13.17649085,.00020676,87.9148,7.3158,75.3058,284.8303,0,U,55160,999,16662,-.3458249E-4,-.1E-7,0
ONEWEB-0620,2023-004X,2026-06-09T15:52:00.986592,13.11420421,.00018073,87.8894,22.5757,92.7813,267.3522,0,U,55161,999,16484,-.19103081E-3,-.55E-6,0
ONEWEB-0621,2023-004Y,2026-06-09T16:31:06.003552,13.11416156,.00020218,87.8901,22.5581,82.0580,278.0778,0,U,55162,999,16482,.10949214E-2,.401E-5,0
ONEWEB-0622,2023-004Z,2026-06-09T14:48:33.584832,13.11415605,.000248,87.8903,22.5746,93.6366,266.5046,0,U,55163,999,16480,.88324891E-3,.326E-5,0
ONEWEB-0623,2023-004AA,2026-06-09T19:18:04.688352,13.17649677,.00026106,87.9135,7.3479,81.9676,278.1752,0,U,55164,999,16661,.16965281E-3,.79E-6,0
ONEWEB-0624,2023-004AB,2026-06-09T19:15:46.161504,13.12929062,.00019029,87.8945,352.0556,87.4341,272.7005,0,U,55165,999,16710,-.36084269E-3,-.118E-5,0
ONEWEB-0625,2023-004AC,2026-06-09T13:35:27.761856,13.17648786,.00017338,87.9139,7.3906,82.7513,277.3815,0,U,55166,999,16657,.16248202E-3,.76E-6,0
ONEWEB-0626,2023-004AD,2026-06-09T13:20:53.361888,13.17648764,.00016975,87.9137,7.3923,99.8238,260.3086,0,U,55167,999,16657,.13044698E-3,.64E-6,0
ONEWEB-0627,2023-004AE,2026-06-09T14:53:12.189408,13.17647261,.0002348,87.9136,7.3801,83.7030,276.4369,0,U,55168,999,16658,-.55839793E-4,-.9E-7,0
ONEWEB-0628,2023-004AF,2026-06-09T18:45:05.192640,13.12443561,.00024589,87.8948,352.1260,81.8316,278.3091,0,U,55169,999,16706,-.89630023E-3,-.31E-5,0
ONEWEB-0629,2023-004AG,2026-06-09T14:17:57.754176,13.17651649,.00019845,87.9137,7.3810,78.0815,282.0539,0,U,55170,999,16658,.28271688E-4,.24E-6,0
ONEWEB-0631,2023-004AH,2026-06-09T17:47:41.762976,13.18684954,.00021138,87.9168,336.9174,104.0551,256.0816,0,U,55171,999,16869,.1398559E-3,.68E-6,0
ONEWEB-0709,2023-004AJ,2026-06-09T15:37:21.873504,13.11417012,.00014535,87.8890,22.5799,113.1045,247.0236,0,U,55172,999,16488,-.11070607E-2,-.38E-5,0
ONEWEB-0710,2023-004AK,2026-06-09T14:38:38.116896,13.17649205,.00020207,87.9136,7.3735,87.8820,272.2543,0,U,55173,999,16658,.43511039E-4,.3E-6,0
ONEWEB-0711,2023-004AL,2026-06-09T14:55:53.650272,13.11416320,.00025535,87.8893,22.5724,86.1988,273.9432,0,U,55174,999,16484,.36384271E-3,.142E-5,0
ONEWEB-0713,2023-004AM,2026-06-09T15:22:43.468896,13.11415613,.00021982,87.8896,22.5701,85.6378,274.5001,0,U,55175,999,16483,-.16455369E-2,-.57E-5,0
ONEWEB-0715,2023-004AN,2026-06-09T13:25:32.096064,13.11416040,.0001803,87.8893,22.5872,106.6934,253.4392,0,U,55176,999,16486,-.11771465E-2,-.404E-5,0
ONEWEB-0716,2023-004AP,2026-06-09T14:28:54.906528,13.17649282,.00016961,87.9140,7.3778,82.1395,277.9929,0,U,55177,999,16658,.24934698E-3,.11E-5,0
ONEWEB-0717,2023-004AQ,2026-06-09T19:32:39.365664,13.17648135,.00023895,87.9148,7.3223,92.6272,267.5134,0,U,55178,999,16666,.2612732E-3,.114E-5,0
ONEWEB-0719,2023-004AR,2026-06-09T14:19:12.114336,13.17648580,.00018258,87.9146,7.3461,80.9180,279.2158,0,U,55179,999,16658,.14953135E-3,.71E-6,0
ONEWEB-0530,2023-029A,2026-06-09T06:53:15.452160,13.20771077,.00023663,87.9180,276.0442,95.0966,265.0438,0,U,55796,999,16010,.40176776E-4,.29E-6,0
